start=new Date('2022-07-14T00:00:00.000Z').valueOf();
sats=[{"OBJECT_NAME":"STARLINK-2294","LAUNCH_DATE":"2021-03-24","ELEMENT_SET_NO":"999","SITE":"AFETR","ARG_OF_PERICENTER":"69.9166","TIME_SYSTEM":"UTC","CLASSIFICATION_TYPE":"U","DECAY_DATE":null,"TLE_LINE1":"1 48020U 21024AV  22194.32972348 -.00000201  00000-0  54373-5 0  9990","PERIOD":"95.592","GP_ID":"208034768","APOAPSIS":"548.697","REF_FRAME":"TEME","OBJECT_TYPE":"PAYLOAD","BSTAR":"0.00000543730000","SEMIMAJOR_AXIS":"6925.327","EPOCH":"2022-07-13T07:54:48.108672","MEAN_ELEMENT_THEORY":"SGP4","TLE_LINE2":"2 48020  53.0566 141.6792 0002174  69.9166 290.2056 15.06407093 74204","REV_AT_EPOCH":"7420","EPHEMERIS_TYPE":"0","OBJECT_ID":"2021-024AV","FILE":"3512925","MEAN_MOTION_DOT":"-0.00000201","NORAD_CAT_ID":"48020","COUNTRY_CODE":"US","ECCENTRICITY":"0.00021740","PERIAPSIS":"545.686","MEAN_ANOMALY":"290.2056","RCS_SIZE":"LARGE","CENTER_NAME":"EARTH","INCLINATION":"53.0566","MEAN_MOTION":"15.06407093","MEAN_MOTION_DDOT":"0.0000000000000","RA_OF_ASC_NODE":"141.6792"},{"MEAN_MOTION_DOT":"-0.00000225","FILE":"3513188","NORAD_CAT_ID":"48021","EPHEMERIS_TYPE":"0","REV_AT_EPOCH":"7422","OBJECT_ID":"2021-024AW","MEAN_ELEMENT_THEORY":"SGP4","TLE_LINE2":"2 48021  53.0537 144.1543 0001622  75.2225 284.8944 15.06396670 74223","EPOCH":"2022-07-13T19:21:25.855200","SEMIMAJOR_AXIS":"6925.359","BSTAR":"0.00000377370000","OBJECT_TYPE":"PAYLOAD","MEAN_ANOMALY":"284.8944","PERIAPSIS":"546.100","COUNTRY_CODE":"US","ECCENTRICITY":"0.00016220","RCS_SIZE":"LARGE","CENTER_NAME":"EARTH","RA_OF_ASC_NODE":"144.1543","MEAN_MOTION_DDOT":"0.0000000000000","MEAN_MOTION":"15.06396670","INCLINATION":"53.0537","TIME_SYSTEM":"UTC","ARG_OF_PERICENTER":"75.2225","SITE":"AFETR","ELEMENT_SET_NO":"999","LAUNCH_DATE":"2021-03-24","OBJECT_NAME":"STARLINK-2301","GP_ID":"208066116","PERIOD":"95.592","TLE_LINE1":"1 48021U 21024AW  22194.80654925 -.00000225  00000-0  37737-5 0  9993","DECAY_DATE":null,"CLASSIFICATION_TYPE":"U","APOAPSIS":"548.347","REF_FRAME":"TEME"},{"APOAPSIS":"548.491","REF_FRAME":"TEME","SITE":"AFETR","ARG_OF_PERICENTER":"63.8200","TIME_SYSTEM":"UTC","LAUNCH_DATE":"2021-03-24","ELEMENT_SET_NO":"999","OBJECT_NAME":"STARLINK-2298","GP_ID":"208066858","CLASSIFICATION_TYPE":"U","DECAY_DATE":null,"TLE_LINE1":"1 48022U 21024AX  22194.76789367  .00000110  00000-0  26298-4 0  9999","PERIOD":"95.592","RCS_SIZE":"LARGE","CENTER_NAME":"EARTH","RA_OF_ASC_NODE":"204.6000","INCLINATION":"53.0542","MEAN_MOTION_DDOT":"0.0000000000000","MEAN_MOTION":"15.06404055","EPHEMERIS_TYPE":"0","REV_AT_EPOCH":"7342","OBJECT_ID":"2021-024AX","MEAN_ELEMENT_THEORY":"SGP4","TLE_LINE2":"2 48022  53.0542 204.6000 0001863  63.8200 296.2980 15.06404055 73428","MEAN_MOTION_DOT":"0.00000110","FILE":"3513188","NORAD_CAT_ID":"48022","OBJECT_TYPE":"PAYLOAD","SEMIMAJOR_AXIS":"6925.336","EPOCH":"2022-07-13T18:25:46.013088","BSTAR":"0.00002629800000","MEAN_ANOMALY":"296.2980","PERIAPSIS":"545.911","COUNTRY_CODE":"US","ECCENTRICITY":"0.00018630"},{"GP_ID":"208065116","DECAY_DATE":null,"TLE_LINE1":"1 48023U 21024AY  22194.75679155 -.00000084  00000-0  13267-4 0  9995","PERIOD":"95.592","CLASSIFICATION_TYPE":"U","TIME_SYSTEM":"UTC","ARG_OF_PERICENTER":"70.2728","SITE":"AFETR","ELEMENT_SET_NO":"999","LAUNCH_DATE":"2021-03-24","OBJECT_NAME":"STARLINK-2292","REF_FRAME":"TEME","APOAPSIS":"548.272","MEAN_ANOMALY":"289.8426","PERIAPSIS":"546.150","ECCENTRICITY":"0.00015320","COUNTRY_CODE":"US","FILE":"3513188","NORAD_CAT_ID":"48023","MEAN_MOTION_DOT":"-0.00000084","REV_AT_EPOCH":"7342","OBJECT_ID":"2021-024AY","EPHEMERIS_TYPE":"0","MEAN_ELEMENT_THEORY":"SGP4","TLE_LINE2":"2 48023  53.0545 204.3768 0001532  70.2728 289.8426 15.06400800 73427","EPOCH":"2022-07-13T18:09:46.789920","SEMIMAJOR_AXIS":"6925.346","BSTAR":"0.00001326700000","OBJECT_TYPE":"PAYLOAD","RA_OF_ASC_NODE":"204.3768","MEAN_MOTION_DDOT":"0.0000000000000","MEAN_MOTION":"15.06400800","INCLINATION":"53.0545","CENTER_NAME":"EARTH","RCS_SIZE":"LARGE"},{"REF_FRAME":"TEME","APOAPSIS":"548.207","GP_ID":"208065365","CLASSIFICATION_TYPE":"U","PERIOD":"95.592","TLE_LINE1":"1 48026U 21024BB  22194.73608610  .00002052  00000-0  15665-3 0  9993","DECAY_DATE":null,"SITE":"AFETR","ARG_OF_PERICENTER":"75.8513","TIME_SYSTEM":"UTC","LAUNCH_DATE":"2021-03-24","ELEMENT_SET_NO":"999","OBJECT_NAME":"STARLINK-2278","RA_OF_ASC_NODE":"209.4506","INCLINATION":"53.0540","MEAN_MOTION_DDOT":"0.0000000000000","MEAN_MOTION":"15.06396194","CENTER_NAME":"EARTH","RCS_SIZE":"LARGE","MEAN_ANOMALY":"284.2633","PERIAPSIS":"546.243","ECCENTRICITY":"0.00014180","COUNTRY_CODE":"US","OBJECT_ID":"2021-024BB","REV_AT_EPOCH":"7329","EPHEMERIS_TYPE":"0","MEAN_ELEMENT_THEORY":"SGP4","TLE_LINE2":"2 48026  53.0540 209.4506 0001418  75.8513 284.2633 15.06396194 73291","NORAD_CAT_ID":"48026","FILE":"3513188","MEAN_MOTION_DOT":"0.00002052","OBJECT_TYPE":"PAYLOAD","EPOCH":"2022-07-13T17:39:57.839040","SEMIMAJOR_AXIS":"6925.360","BSTAR":"0.00015665000000"},{"REF_FRAME":"TEME","APOAPSIS":"548.167","CLASSIFICATION_TYPE":"U","PERIOD":"95.592","TLE_LINE1":"1 48027U 21024BC  22194.69598553  .00002137  00000-0  16232-3 0  9998","DECAY_DATE":null,"GP_ID":"208066615","ELEMENT_SET_NO":"999","LAUNCH_DATE":"2021-03-24","OBJECT_NAME":"STARLINK-2300","SITE":"AFETR","TIME_SYSTEM":"UTC","ARG_OF_PERICENTER":"72.3202","INCLINATION":"53.0531","MEAN_MOTION_DDOT":"0.0000000000000","MEAN_MOTION":"15.06402872","RA_OF_ASC_NODE":"184.6369","CENTER_NAME":"EARTH","RCS_SIZE":"LARGE","PERIAPSIS":"546.243","ECCENTRICITY":"0.00013890","COUNTRY_CODE":"US","MEAN_ANOMALY":"287.7939","OBJECT_TYPE":"PAYLOAD","EPOCH":"2022-07-13T16:42:13.149792","SEMIMAJOR_AXIS":"6925.340","BSTAR":"0.00016232000000","EPHEMERIS_TYPE":"0","REV_AT_EPOCH":"7363","OBJECT_ID":"2021-024BC","TLE_LINE2":"2 48027  53.0531 184.6369 0001389  72.3202 287.7939 15.06402872 73633","MEAN_ELEMENT_THEORY":"SGP4","FILE":"3513188","MEAN_MOTION_DOT":"0.00002137","NORAD_CAT_ID":"48027"},{"MEAN_ANOMALY":"304.8817","ECCENTRICITY":"0.00018330","COUNTRY_CODE":"US","PERIAPSIS":"545.967","TLE_LINE2":"2 48028  53.0548 140.7053 0001833  55.2344 304.8817 15.06392430 74293","MEAN_ELEMENT_THEORY":"SGP4","EPHEMERIS_TYPE":"0","REV_AT_EPOCH":"7429","OBJECT_ID":"2021-024BD","FILE":"3512925","MEAN_MOTION_DOT":"-0.00000549","NORAD_CAT_ID":"48028","OBJECT_TYPE":"PAYLOAD","BSTAR":"-0.00001798200000","EPOCH":"2022-07-13T13:07:59.344896","SEMIMAJOR_AXIS":"6925.372","RA_OF_ASC_NODE":"140.7053","INCLINATION":"53.0548","MEAN_MOTION":"15.06392430","MEAN_MOTION_DDOT":"0.0000000000000","RCS_SIZE":"LARGE","CENTER_NAME":"EARTH","GP_ID":"208035269","CLASSIFICATION_TYPE":"U","PERIOD":"95.593","TLE_LINE1":"1 48028U 21024BD  22194.54721464 -.00000549  00000-0 -17982-4 0  9993","DECAY_DATE":null,"SITE":"AFETR","TIME_SYSTEM":"UTC","ARG_OF_PERICENTER":"55.2344","OBJECT_NAME":"STARLINK-2264","ELEMENT_SET_NO":"999","LAUNCH_DATE":"2021-03-24","REF_FRAME":"TEME","APOAPSIS":"548.506"},{"REF_FRAME":"TEME","APOAPSIS":"548.528","CLASSIFICATION_TYPE":"U","TLE_LINE1":"1 48029U 21024BE  22194.80102757  .00000172  00000-0  30489-4 0  9998","DECAY_DATE":null,"PERIOD":"95.593","GP_ID":"208065614","ELEMENT_SET_NO":"999","LAUNCH_DATE":"2021-03-24","OBJECT_NAME":"STARLINK-2299","SITE":"AFETR","TIME_SYSTEM":"UTC","ARG_OF_PERICENTER":"55.7261","INCLINATION":"53.0522","MEAN_MOTION_DDOT":"0.0000000000000","MEAN_MOTION":"15.06394328","RA_OF_ASC_NODE":"204.1740","CENTER_NAME":"EARTH","RCS_SIZE":"LARGE","PERIAPSIS":"545.934","COUNTRY_CODE":"US","ECCENTRICITY":"0.00018730","MEAN_ANOMALY":"304.3905","OBJECT_TYPE":"PAYLOAD","SEMIMAJOR_AXIS":"6925.366","EPOCH":"2022-07-13T19:13:28.782048","BSTAR":"0.00003048900000","REV_AT_EPOCH":"7343","OBJECT_ID":"2021-024BE","EPHEMERIS_TYPE":"0","TLE_LINE2":"2 48029  53.0522 204.1740 0001873  55.7261 304.3905 15.06394328 73437","MEAN_ELEMENT_THEORY":"SGP4","NORAD_CAT_ID":"48029","FILE":"3513188","MEAN_MOTION_DOT":"0.00000172"},{"SITE":"AFETR","ARG_OF_PERICENTER":"52.3518","TIME_SYSTEM":"UTC","LAUNCH_DATE":"2021-03-24","ELEMENT_SET_NO":"999","OBJECT_NAME":"STARLINK-2268","GP_ID":"208065863","CLASSIFICATION_TYPE":"U","TLE_LINE1":"1 48030U 21024BF  22194.76185772  .00002168  00000-0  16442-3 0  9992","DECAY_DATE":null,"PERIOD":"95.592","APOAPSIS":"548.488","REF_FRAME":"TEME","OBJECT_ID":"2021-024BF","REV_AT_EPOCH":"7329","EPHEMERIS_TYPE":"0","MEAN_ELEMENT_THEORY":"SGP4","TLE_LINE2":"2 48030  53.0546 209.3393 0001856  52.3518 307.7639 15.06403512 73296","MEAN_MOTION_DOT":"0.00002168","FILE":"3513188","NORAD_CAT_ID":"48030","OBJECT_TYPE":"PAYLOAD","SEMIMAJOR_AXIS":"6925.338","EPOCH":"2022-07-13T18:17:04.507008","BSTAR":"0.00016442000000","MEAN_ANOMALY":"307.7639","PERIAPSIS":"545.917","ECCENTRICITY":"0.00018560","COUNTRY_CODE":"US","RCS_SIZE":"LARGE","CENTER_NAME":"EARTH","RA_OF_ASC_NODE":"209.3393","INCLINATION":"53.0546","MEAN_MOTION_DDOT":"0.0000000000000","MEAN_MOTION":"15.06403512"},{"ECCENTRICITY":"0.00018670","COUNTRY_CODE":"US","PERIAPSIS":"545.828","MEAN_ANOMALY":"296.6076","BSTAR":"0.00059959000000","EPOCH":"2022-07-13T03:16:44.736096","SEMIMAJOR_AXIS":"6925.256","OBJECT_TYPE":"PAYLOAD","FILE":"3512925","MEAN_MOTION_DOT":"0.00008668","NORAD_CAT_ID":"48031","MEAN_ELEMENT_THEORY":"SGP4","TLE_LINE2":"2 48031  53.0569  97.1540 0001867  63.5105 296.6076 15.06430102 74812","REV_AT_EPOCH":"7481","EPHEMERIS_TYPE":"0","OBJECT_ID":"2021-024BG","MEAN_MOTION":"15.06430102","MEAN_MOTION_DDOT":"0.0000000000000","INCLINATION":"53.0569","RA_OF_ASC_NODE":"97.1540","CENTER_NAME":"EARTH","RCS_SIZE":"LARGE","TLE_LINE1":"1 48031U 21024BG  22194.13662889  .00008668  00000-0  59959-3 0  9994","DECAY_DATE":null,"PERIOD":"95.590","CLASSIFICATION_TYPE":"U","GP_ID":"208035019","OBJECT_NAME":"STARLINK-2267","LAUNCH_DATE":"2021-03-24","ELEMENT_SET_NO":"999","ARG_OF_PERICENTER":"63.5105","TIME_SYSTEM":"UTC","SITE":"AFETR","REF_FRAME":"TEME","APOAPSIS":"548.414"}];
